AMC-1 (GE-1)            
1 24315U 96054A   23325.75000843 -.00000312  00000+0  00000+0 0  9996
2 24315   6.8635  68.5080 0010208 190.9693 198.1005  0.99507563 36906
AMC-3 (GE-3)            
1 24936U 97050A   23326.45058610 -.00000255  00000+0  00000+0 0  9991
2 24936   5.8309  74.3370 0003161 181.2637 255.8024  1.00270828 96047
ASTRA 1G                
1 25071U 97076A   23325.51489826 -.00000031  00000+0  00000+0 0  9995
2 25071   7.3223  63.1969 0009687 138.5176  69.3329  0.99037480 95072
ASTRA 2A                
1 25462U 98050A   23326.02270874  .00000075  00000+0  00000+0 0  9997
2 25462   4.7175  79.8200 0003201 164.3393 241.9805  1.00271869 92336
NSS-11 (AAP-1)          
1 26554U 00059A   23326.47616118  .00000030  00000+0  00000+0 0  9997
2 26554   0.0139 332.5896 0002695 261.2836 174.7576  1.00271445 84770
AMC-6 (GE-6)            
1 26580U 00067A   23326.47918142  .00000109  00000+0  00000+0 0  9994
2 26580   0.0200 308.3318 0002708 297.2596 209.1321  1.00272167 84587
ASTRA 2C                
1 26853U 01025A   23325.78203279 -.00000253  00000+0  00000+0 0  9994
2 26853   5.8515  74.1613 0002957 168.0230  27.3434  1.00274657 35637
NSS-7                   
1 27414U 02019A   23325.10813354 -.00000152  00000+0  00000+0 0  9997
2 27414   7.1239  66.7645 0002463 185.8947 186.1395  1.00271809 79156
NSS-6                   
1 27603U 02057A   23325.96823253 -.00000287  00000+0  00000+0 0  9991
2 27603   2.9416  85.7787 0005856 186.4880 280.4872  0.99127209 76613
AMC-11 (GE-11)          
1 28252U 04017A   23326.49992610 -.00000044  00000+0  00000+0 0  9994
2 28252   0.0453  75.8869 0002879 174.9370 239.2933  1.00271578 71306
AMC-15                  
1 28446U 04041A   23326.16961295 -.00000084  00000+0  00000+0 0  9999
2 28446   0.0185 334.5665 0002270 257.3073 145.0553  1.00271602 69940
NSS-10 (AMC-12)         
1 28526U 05003A   23326.07553153 -.00000244  00000+0  00000+0 0  9995
2 28526   4.0905  81.5696 0002968 150.9481 178.0465  1.00271608 68911
ASTRA 1KR               
1 29055U 06012A   23326.08675745  .00000125  00000+0  00000+0 0  9994
2 29055   0.0234 292.2995 0005289 303.0194 235.9567  1.00268522 64344
AMC-18                  
1 29644U 06054B   23326.47877188 -.00000114  00000+0  00000+0 0  9991
2 29644   0.1936 138.8985 0008976  57.1723 226.7395  0.98859935 62113
ASTRA 1L                
1 31306U 07016A   23326.30168063  .00000125  00000+0  00000+0 0  9996
2 31306   0.0485 327.3511 0005139 296.7520 284.7357  1.00269821 60633
ASTRA 4A (SIRIUS 4)     
1 32299U 07057A   23325.79743581  .00000037  00000+0  00000+0 0  9991
2 32299   0.0380  76.3749 0002800 165.0090 111.0467  1.00271026 42257
AMC-21                  
1 33275U 08038B   23326.05812698  .00000041  00000+0  00000+0 0  9997
2 33275   0.5173  93.1208 0003271 154.9354  68.7783  1.00271215 56060
ASTRA 1M                
1 33436U 08057A   23326.08675745  .00000125  00000+0  00000+0 0  9993
2 33436   0.0573  95.1344 0003617  99.6763 276.4726  1.00271696 55072
CIEL-2                  
1 33453U 08063A   23326.15972542  .00000063  00000+0  00000+0 0  9993
2 33453   0.3355  93.6432 0002835 146.0338 109.8928  1.00271926 54718
NSS-9                   
1 33749U 09008A   23326.47764057  .00000077  00000+0  00000+0 0  9991
2 33749   0.0281 306.7274 0002163 293.2289 176.2837  1.00273701 54166
SES-7 (PROTOSTAR 2)     
1 34941U 09027A   23326.03289039 -.00000340  00000+0  00000+0 0  9995
2 34941   0.0610  85.1308 0002354 151.1918 304.5621  1.00269186 53209
NSS-12                  
1 36032U 09058A   23325.80779153  .00000076  00000+0  00000+0 0  9992
2 36032   0.0316  56.0749 0002694 181.9376 170.3552  1.00272349 51505
SES-1                   
1 36516U 10016A   23326.50713194 -.00000109  00000+0  00000+0 0  9994
2 36516   0.0350  61.4750 0002738 185.9277 255.4285  1.00270709 49733
ASTRA 3B                
1 36581U 10021A   23326.08762767  .00000142  00000+0  00000+0 0  9991
2 36581   0.0499   8.6602 0002451 216.9634 250.2774  1.00269969 49240
SES-3                   
1 37748U 11035A   23326.17319920 -.00000097  00000+0  00000+0 0  9992
2 37748   0.0247  10.7612 0002770 227.6941 141.8217  1.00271753 45298
ASTRA 1N                
1 37775U 11041A   23326.30168063  .00000125  00000+0  00000+0 0  9995
2 37775   0.0768  50.3116 0000740 246.9155 251.6481  1.00269735 44997
SES-2                   
1 37809U 11049A   23326.18011201 -.00000191  00000+0  00000+0 0  9992
2 37809   0.0166 315.4355 0002494 282.5357 160.7907  1.00271916 44598
QUETZSAT 1              
1 37826U 11054A   23326.18535971 -.00000237  00000+0  00000+0 0  9993
2 37826   0.0476  85.1978 0002707 177.2471 148.2300  1.00271418 44693
SES-4                   
1 38087U 12007A   23326.07857733 -.00000163  00000+0  00000+0 0  9991
2 38087   0.0203  18.9978 0002735 232.9457 175.1750  1.00270281 43086
SES-5                   
1 38652U 12036A   23326.08397272  .00000039  00000+0  00000+0 0  9990
2 38652   0.0383 308.0249 0001952 292.0082 216.0150  1.00271220 41663
ASTRA 2F                
1 38778U 12051A   23326.30350809  .00000155  00000+0  00000+0 0  9995
2 38778   0.0471 246.7404 0004372 346.1962 325.5644  1.00270522 40889
SES-6                   
1 39172U 13026A   23326.07492236 -.00000256  00000+0  00000+0 0  9995
2 39172   0.0287 311.0921 0002669 286.3994 169.8026  1.00269060 38313
O3B FM5                 
1 39188U 13031A   23325.59136404 -.00000015  00000+0  00000+0 0  9999
2 39188   0.0336   7.0254 0003011 230.7718 122.1784  5.00115655190074
O3B FM4                 
1 39189U 13031B   23321.04949336 -.00000011  00000+0  00000+0 0  9998
2 39189   0.0613  10.2316 0002976 223.6815 126.0665  5.00116130189861
O3B FM2                 
1 39190U 13031C   23325.13933825 -.00000015  00000+0  00000+0 0  9994
2 39190   0.0663  11.0327 0002815 226.5171 122.4280  5.00115294190133
O3B PFM                 
1 39191U 13031D   23325.76475753 -.00000015  00000+0  00000+0 0  9995
2 39191   0.0426   6.3145 0002612 234.4005 119.2637  5.00115955189722
ASTRA 2E                
1 39285U 13056A   23325.84216263  .00000155  00000+0  00000+0 0  9998
2 39285   0.0613 339.2955 0002356 264.2698 148.6745  1.00270881 37022
SES-8                   
1 39460U 13071A   23326.46006198 -.00000265  00000+0  00000+0 0  9996
2 39460   0.0215 270.8666 0000962 295.4235 115.5357  1.00271940 36475
ASTRA 5B                
1 39617U 14011B   23326.08762767  .00000142  00000+0  00000+0 0  9997
2 39617   0.0497 320.4799 0004263 293.0857 222.3159  1.00270945 35461
O3B FM3                 
1 40079U 14038A   23326.21885244 -.00000015  00000+0  00000+0 0  9991
2 40079   0.0536   9.9415 0001087 295.1951  54.8580  5.00116607171210
O3B FM7                 
1 40080U 14038B   23325.76577653 -.00000015  00000+0  00000+0 0  9994
2 40080   0.0564  13.5299 0004265 212.3561 134.0836  5.00115838170931
O3B FM6                 
1 40081U 14038C   23325.79251463 -.00000015  00000+0  00000+0 0  9996
2 40081   0.0544   9.1485 0002655 230.3868 120.4433  5.00115126170874
O3B FM8                 
1 40082U 14038D   23321.64834023 -.00000012  00000+0  00000+0 0  9993
2 40082   0.0549  10.3454 0002681 228.3135 121.3216  5.00115231170789
O3B FM10                
1 40348U 14083A   23325.47274533 -.00000015  00000+0  00000+0 0  9990
2 40348   0.0471   3.0447 0002658 236.6825 120.2514  5.00115278162939
O3B FM11                
1 40349U 14083B   23325.28612921 -.00000015  00000+0  00000+0 0  9997
2 40349   0.0453   8.6576 0003018 219.0264 132.2953  5.00115470162942
O3B FM12                
1 40350U 14083C   23326.31287108 -.00000016  00000+0  00000+0 0  9990
2 40350   0.0462   8.2151 0002603 228.5152 123.2495  5.00115426163155
O3B FM9                 
1 40351U 14083D   23325.33994012 -.00000015  00000+0  00000+0 0  9990
2 40351   0.0447   9.8640 0002725 228.8687 121.2455  5.00114932163100
ASTRA 2G                
1 40364U 14089A   23326.30350809  .00000155  00000+0  00000+0 0  9992
2 40364   0.0455  15.9359 0000959  47.4565 135.1348  1.00270328 32619
SES-9                   
1 41380U 16013A   23325.81797317 -.00000340  00000+0  00000+0 0  9991
2 41380   0.0109 312.8535 0000655 204.5430 305.9337  1.00268947 28039
SES-10                  
1 42432U 17017A   23326.05535410 -.00000268  00000+0  00000+0 0  9995
2 42432   0.0419  84.4912 0002660 169.2872 120.0645  1.00269786 24326
SES-15                  
1 42709U 17026A   23326.15897473  .00000065  00000+0  00000+0 0  9997
2 42709   0.0351  50.2478 0001069 185.0987 113.6346  1.00262760 24782
SES-11 (ECHOSTAR 105)   
1 42967U 17063A   23326.17036359 -.00000085  00000+0  00000+0 0  9997
2 42967   0.0086 332.8550 0003084 290.2274 114.2278  1.00271614 22406
SES-14                  
1 43175U 18012B   23326.43169257 -.00000273  00000+0  00000+0 0  9996
2 43175   0.0140 321.3781 0000996 272.0421 295.6753  1.00269676 21641
O3B FM15                
1 43231U 18024A   23325.60596633 -.00000015  00000+0  00000+0 0  9996
2 43231   0.0481 359.1896 0002674 238.5218 122.2675  5.00114520104072
O3B FM16                
1 43232U 18024B   23325.45901002 -.00000015  00000+0  00000+0 0  9990
2 43232   0.0489 354.2453 0002724 240.9425 124.7915  5.00115031103979
O3B FM14                
1 43233U 18024C   23326.09876968 -.00000015  00000+0  00000+0 0  9994
2 43233   0.0498 352.8241 0002901 243.7847 123.3682  5.00115725104253
O3B FM13                
1 43234U 18024D   23325.55280290 -.00000015  00000+0  00000+0 0  9992
2 43234   0.0445  28.6415 0002218 200.0960 131.2482  5.00115792104115
SES-12                  
1 43488U 18049A   23326.46006198 -.00000264  00000+0  00000+0 0  9990
2 43488   0.0412  78.1267 0002513 177.3928  66.3068  1.00269603 20003
O3B FM20                
1 44112U 19020A   23326.12545163 -.00000015  00000+0  00000+0 0  9992
2 44112   0.0477   3.1199 0002682 227.3150 129.5462  5.00115709 84721
O3B FM19                
1 44113U 19020B   23325.95256936 -.00000015  00000+0  00000+0 0  9990
2 44113   0.0329  12.9205 0004177 221.1184 125.9271  5.00115592 84711
O3B FM17                
1 44114U 19020C   23325.63289615 -.00000015  00000+0  00000+0 0  9996
2 44114   0.0661 356.1193 0002627 241.1088 122.7514  5.00115972 84574
O3B FM18                
1 44115U 19020D   23325.57933154 -.00000015  00000+0  00000+0 0  9994
2 44115   0.0473   3.4043 0002743 237.4003 119.1727  5.00115965 84697
SES-17                  
1 49332U 21095A   23325.85475490 -.00000267  00000+0  00000+0 0  9999
2 49332   0.0153 352.9336 0001433 246.7943  61.4917  1.00271545  8437
SES-22                  
1 52933U 22071A   23326.48386905  .00000093  00000+0  00000+0 0  9993
2 52933   0.0158 301.3272 0001084 291.2882 227.8160  1.00268909  5164
SES-20                  
1 53960U 22123A   23325.91923873 -.00000096  00000+0  00000+0 0  9994
2 53960   0.0397 132.3589 0001250 348.9442 167.1956  1.00270542  4120
SES-21                  
1 53961U 22123B   23326.15822431  .00000074  00000+0  00000+0 0  9995
2 53961   0.0184  12.6490 0001291 209.4570 124.7454  1.00269681  4140
O3B MPOWER F1           
1 54755U 22174A   23325.46427100 -.00000015  00000+0  00000+0 0  9996
2 54755   0.0540  18.5302 0005626 236.6395 119.0516  5.00118318 18390
O3B MPOWER F2           
1 54756U 22174B   23325.56817244 -.00000015  00000+0  00000+0 0  9990
2 54756   0.0563  17.7215 0008536 261.8215  80.3655  5.00113394 18487
SES-18                  
1 55970U 23038A   23326.17340045 -.00000096  00000+0  00000+0 0  9996
2 55970   0.0152 270.2529 0002924 342.5737 127.4182  1.00271172  2717
SES-19                  
1 55971U 23038B   23326.15596705  .00000092  00000+0  00000+0 0  9996
2 55971   0.0114 317.2093 0001710 281.0939 103.8575  1.00272365  2671
O3B MPOWER F4           
1 56367U 23059A   23325.48908834 -.00000015  00000+0  00000+0 0  9990
2 56367   0.0377  11.8018 0007032 239.3313 108.7955  5.00114839 11649
O3B MPOWER F3           
1 56368U 23059B   23325.58922426 -.00000015  00000+0  00000+0 0  9995
2 56368   0.0360   9.4644 0004107 267.7504  82.7433  5.00114531  7788
